SPOT 6                  
1 38755U 12047A   26190.83657375  .00000079  00000+0  26856-4 0  9990
2 38755  98.2108 257.8795 0001147  81.7990 278.3339 14.58536886736351
SPOT 7                  
1 40053U 14034A   26190.85129647  .00000041  00000+0  17546-4 0  9995
2 40053  98.0617 252.7581 0001542  97.0727 263.0649 14.60977461640442
